{
    "links": {
        "self": "http://www.neowsapp.com/rest/v1/neo/3076610?api_key=iIulBulltgU6a56xZRHN4H3l9WmuAYTsLGpBGhQ2"
    },
    "id": "3076610",
    "neo_reference_id": "3076610",
    "name": "(2001 DT8)",
    "designation": "2001 DT8",
    "nasa_jpl_url": "http://ssd.jpl.nasa.gov/sbdb.cgi?sstr=3076610",
    "absolute_magnitude_h": 19.5,
    "estimated_diameter": {
        "kilometers": {
            "estimated_diameter_min": 0.3346223745,
            "estimated_diameter_max": 0.7482383761
        },
        "meters": {
            "estimated_diameter_min": 334.6223744549,
            "estimated_diameter_max": 748.2383760735
        },
        "miles": {
            "estimated_diameter_min": 0.2079246394,
            "estimated_diameter_max": 0.464933628
        },
        "feet": {
            "estimated_diameter_min": 1097.8424710066,
            "estimated_diameter_max": 2454.8503937571
        }
    },
    "is_potentially_hazardous_asteroid": false,
    "close_approach_data": [
        {
            "close_approach_date": "2001-02-08",
            "close_approach_date_full": "2001-Feb-08 06:43",
            "epoch_date_close_approach": 981614580000,
            "relative_velocity": {
                "kilometers_per_second": "26.22956571",
                "kilometers_per_hour": "94426.4365560464",
                "miles_per_hour": "58672.9155367279"
            },
            "miss_distance": {
                "astronomical": "0.2751240142",
                "lunar": "107.0232415238",
                "kilometers": "41157966.510169754",
                "miles": "25574374.4899164452"
            },
            "orbiting_body": "Earth"
        }
    ],
    "orbital_data": {
        "orbit_id": "18",
        "orbit_determination_date": "2017-04-06 09:16:31",
        "first_observation_date": "2001-02-17",
        "last_observation_date": "2001-04-19",
        "data_arc_in_days": 61,
        "observations_used": 30,
        "orbit_uncertainty": "7",
        "minimum_orbit_intersection": ".221373",
        "jupiter_tisserand_invariant": "3.066",
        "epoch_osculation": "2459000.5",
        "eccentricity": ".4678831946871054",
        "semi_major_axis": "2.268265802047353",
        "inclination": "48.57117949248101",
        "ascending_node_longitude": "315.2947342610524",
        "orbital_period": "1247.78380474241",
        "perihelion_distance": "1.206982352185928",
        "perihelion_argument": "182.3493163409318",
        "aphelion_distance": "3.329549251908778",
        "perihelion_time": "2459448.019665779176",
        "mean_anomaly": "230.8854217628173",
        "mean_motion": ".28851151828687",
        "equinox": "J2000",
        "orbit_class": {
            "orbit_class_type": "AMO",
            "orbit_class_description": "Near-Earth asteroid orbits similar to that of 1221 Amor",
            "orbit_class_range": "1.017 AU < q (perihelion) < 1.3 AU"
        }
    },
    "is_sentry_object": false
}